{"type": "FeatureCollection", "features": [ {"type": "Feature", "properties": {"norad_id": 34875, "name": "COSMOS 2251 DEB", "group": "cosmos-2251-debris", "lat": 15.067413624804644, "lon": -38.477796737122226, "alt_km": 732.51613452124, "timestamp": "2025-12-19T06:59:44.302085+00:00", "meta": {"OBJECT_NAME": "COSMOS 2251 DEB", "OBJECT_ID": "1993-036ACN", "EPOCH": "2025-12-18T20:59:26.678976", "MEAN_MOTION": 14.48946121, "ECCENTRICITY": 0.00162292, "INCLINATION": 74.0436, "RA_OF_ASC_NODE": 146.7205, "ARG_OF_PERICENTER": 270.0148, "MEAN_ANOMALY": 240.7706, "EPHEMERIS_TYPE": 0, "CLASSIFICATION_TYPE": "U", "NORAD_CAT_ID": 34875, "ELEMENT_SET_NO": 999, "REV_AT_EPOCH": 87844, "BSTAR": 0.00037887223, "MEAN_MOTION_DOT": 1.41e-05, "MEAN_MOTION_DDOT": 0}, "tle": {"line1": "1 34875U 93036ACN 25352.87461434  .00001410  00000+0  37887-3 0  9993", "line2": "2 34875  74.0436 146.7205 0016229 270.0148 240.7706 14.48946121878447"}}, "geometry": {"type": "Point", "coordinates": [-38.477796737122226, 15.067413624804644]}}, {"type": "Feature", "properties": {"norad_id": 34878, "name": "COSMOS 2251 DEB", "group": "cosmos-2251-debris", "lat": -17.598852417202657, "lon": 31.695494311141477, "alt_km": 834.5252201856192, "timestamp": "2025-12-19T06:59:44.302095+00:00", "meta": {"OBJECT_NAME": "COSMOS 2251 DEB", "OBJECT_ID": "1993-036ACR", "EPOCH": "2025-12-18T11:43:50.154816", "MEAN_MOTION": 13.44198549, "ECCENTRICITY": 0.04355423, "INCLINATION": 73.9648, "RA_OF_ASC_NODE": 38.2023, "ARG_OF_PERICENTER": 20.5933, "MEAN_ANOMALY": 41.1535, "EPHEMERIS_TYPE": 0, "CLASSIFICATION_TYPE": "U", "NORAD_CAT_ID": 34878, "ELEMENT_SET_NO": 999, "REV_AT_EPOCH": 81350, "BSTAR": 0.00058920549, "MEAN_MOTION_DOT": 5.85e-06, "MEAN_MOTION_DDOT": 0}, "tle": {"line1": "1 34878U 93036ACR 25352.48877494  .00000585  00000+0  58921-3 0  9994", "line2": "2 34878  73.9648  38.2023 0435542  20.5933  41.1535 13.44198549813506"}}, "geometry": {"type": "Point", "coordinates": [31.695494311141477, -17.598852417202657]}}, {"type": "Feature", "properties": {"norad_id": 34882, "name": "COSMOS 2251 DEB", "group": "cosmos-2251-debris", "lat": 44.614156336237976, "lon": -130.54059978935126, "alt_km": 661.9190704988796, "timestamp": "2025-12-19T06:59:44.302105+00:00", "meta": {"OBJECT_NAME": "COSMOS 2251 DEB", "OBJECT_ID": "1993-036ACV", "EPOCH": "2025-12-18T01:12:56.345760", "MEAN_MOTION": 14.61607051, "ECCENTRICITY": 0.00830708, "INCLINATION": 74.0456, "RA_OF_ASC_NODE": 215.4368, "ARG_OF_PERICENTER": 341.1734, "MEAN_ANOMALY": 18.6364, "EPHEMERIS_TYPE": 0, "CLASSIFICATION_TYPE": "U", "NORAD_CAT_ID": 34882, "ELEMENT_SET_NO": 999, "REV_AT_EPOCH": 88602, "BSTAR": 0.00011703078, "MEAN_MOTION_DOT": 5.78e-06, "MEAN_MOTION_DDOT": 0}, "tle": {"line1": "1 34882U 93036ACV 25352.05065215  .00000578  00000+0  11703-3 0  9991", "line2": "2 34882  74.0456 215.4368 0083070 341.1734  18.6364 14.61607051886026"}}, "geometry": {"type": "Point", "coordinates": [-130.54059978935126, 44.614156336237976]}}, {"type": "Feature", "properties": {"norad_id": 34883, "name": "COSMOS 2251 DEB", "group": "cosmos-2251-debris", "lat": -35.92342492017778, "lon": -117.65766386676181, "alt_km": 661.5747837845574, "timestamp": "2025-12-19T06:59:44.302115+00:00", "meta": {"OBJECT_NAME": "COSMOS 2251 DEB", "OBJECT_ID": "1993-036ACW", "EPOCH": "2025-12-18T13:27:07.209504", "MEAN_MOTION": 14.51672805, "ECCENTRICITY": 0.00951028, "INCLINATION": 74.2022, "RA_OF_ASC_NODE": 51.868, "ARG_OF_PERICENTER": 236.3156, "MEAN_ANOMALY": 122.8912, "EPHEMERIS_TYPE": 0, "CLASSIFICATION_TYPE": "U", "NORAD_CAT_ID": 34883, "ELEMENT_SET_NO": 999, "REV_AT_EPOCH": 86524, "BSTAR": 0.0028915699, "MEAN_MOTION_DOT": 0.00012297, "MEAN_MOTION_DDOT": 0}, "tle": {"line1": "1 34883U 93036ACW 25352.56050011  .00012297  00000+0  28916-2 0  9990", "line2": "2 34883  74.2022  51.8680 0095102 236.3156 122.8912 14.51672805865245"}}, "geometry": {"type": "Point", "coordinates": [-117.65766386676181, -35.92342492017778]}}, {"type": "Feature", "properties": {"norad_id": 34884, "name": "COSMOS 2251 DEB", "group": "cosmos-2251-debris", "lat": -17.557467057285702, "lon": 38.41057346492953, "alt_km": 600.8557684127754, "timestamp": "2025-12-19T06:59:44.302125+00:00", "meta": {"OBJECT_NAME": "COSMOS 2251 DEB", "OBJECT_ID": "1993-036ACX", "EPOCH": "2025-12-18T20:20:15.053280", "MEAN_MOTION": 14.90331593, "ECCENTRICITY": 0.00025983, "INCLINATION": 74.0174, "RA_OF_ASC_NODE": 44.5032, "ARG_OF_PERICENTER": 52.1637, "MEAN_ANOMALY": 68.0631, "EPHEMERIS_TYPE": 0, "CLASSIFICATION_TYPE": "U", "NORAD_CAT_ID": 34884, "ELEMENT_SET_NO": 999, "REV_AT_EPOCH": 87896, "BSTAR": 0.0018119739, "MEAN_MOTION_DOT": 0.00017632, "MEAN_MOTION_DDOT": 0}, "tle": {"line1": "1 34884U 93036ACX 25352.84739645  .00017632  00000+0  18120-2 0  9993", "line2": "2 34884  74.0174  44.5032 0002598  52.1637  68.0631 14.90331593878968"}}, "geometry": {"type": "Point", "coordinates": [38.41057346492953, -17.557467057285702]}}, {"type": "Feature", "properties": {"norad_id": 34885, "name": "COSMOS 2251 DEB", "group": "cosmos-2251-debris", "lat": 34.236899945733434, "lon": -178.07634596611686, "alt_km": 726.2790930225883, "timestamp": "2025-12-19T06:59:44.302135+00:00", "meta": {"OBJECT_NAME": "COSMOS 2251 DEB", "OBJECT_ID": "1993-036ACY", "EPOCH": "2025-12-18T23:08:06.162144", "MEAN_MOTION": 14.51533828, "ECCENTRICITY": 0.00150907, "INCLINATION": 74.0297, "RA_OF_ASC_NODE": 171.302, "ARG_OF_PERICENTER": 256.6098, "MEAN_ANOMALY": 228.3961, "EPHEMERIS_TYPE": 0, "CLASSIFICATION_TYPE": "U", "NORAD_CAT_ID": 34885, "ELEMENT_SET_NO": 999, "REV_AT_EPOCH": 87569, "BSTAR": 0.00054055899, "MEAN_MOTION_DOT": 2.138e-05, "MEAN_MOTION_DDOT": 0}, "tle": {"line1": "1 34885U 93036ACY 25352.96396021  .00002138  00000+0  54056-3 0  9998", "line2": "2 34885  74.0297 171.3020 0015090 256.6098 228.3961 14.51533828875690"}}, "geometry": {"type": "Point", "coordinates": [-178.07634596611686, 34.236899945733434]}}, {"type": "Feature", "properties": {"norad_id": 34886, "name": "COSMOS 2251 DEB", "group": "cosmos-2251-debris", "lat": 22.21853976882957, "lon": 173.5345350364963, "alt_km": 429.6512816866216, "timestamp": "2025-12-19T06:59:44.302145+00:00", "meta": {"OBJECT_NAME": "COSMOS 2251 DEB", "OBJECT_ID": "1993-036ACZ", "EPOCH": "2025-12-17T20:34:53.099328", "MEAN_MOTION": 15.39300916, "ECCENTRICITY": 0.00309575, "INCLINATION": 73.9497, "RA_OF_ASC_NODE": 169.8917, "ARG_OF_PERICENTER": 352.7247, "MEAN_ANOMALY": 7.3506, "EPHEMERIS_TYPE": 0, "CLASSIFICATION_TYPE": "U", "NORAD_CAT_ID": 34886, "ELEMENT_SET_NO": 999, "REV_AT_EPOCH": 63077, "BSTAR": 0.001400083, "MEAN_MOTION_DOT": 0.00055889, "MEAN_MOTION_DDOT": 0}, "tle": {"line1": "1 34886U 93036ACZ 25351.85755902  .00055889  00000+0  14001-2 0  9999", "line2": "2 34886  73.9497 169.8917 0030957 352.7247   7.3506 15.39300916630776"}}, "geometry": {"type": "Point", "coordinates": [173.5345350364963, 22.21853976882957]}}, {"type": "Feature", "properties": {"norad_id": 34907, "name": "COSMOS 2251 DEB", "group": "cosmos-2251-debris", "lat": 53.65887461153201, "lon": -168.94702733432175, "alt_km": 427.6951922968865, "timestamp": "2025-12-19T06:59:44.302155+00:00", "meta": {"OBJECT_NAME": "COSMOS 2251 DEB", "OBJECT_ID": "1993-036ADC", "EPOCH": "2025-12-18T02:32:53.800800", "MEAN_MOTION": 15.47692445, "ECCENTRICITY": 0.00196953, "INCLINATION": 73.9694, "RA_OF_ASC_NODE": 36.6616, "ARG_OF_PERICENTER": 333.5312, "MEAN_ANOMALY": 26.4892, "EPHEMERIS_TYPE": 0, "CLASSIFICATION_TYPE": "U", "NORAD_CAT_ID": 34907, "ELEMENT_SET_NO": 999, "REV_AT_EPOCH": 88056, "BSTAR": 0.0061125728, "MEAN_MOTION_DOT": 0.00332113, "MEAN_MOTION_DDOT": 0}, "tle": {"line1": "1 34907U 93036ADC 25352.10617825  .00332113  00000+0  61126-2 0  9991", "line2": "2 34907  73.9694  36.6616 0019695 333.5312  26.4892 15.47692445880566"}}, "geometry": {"type": "Point", "coordinates": [-168.94702733432175, 53.65887461153201]}}, {"type": "Feature", "properties": {"norad_id": 34908, "name": "COSMOS 2251 DEB", "group": "cosmos-2251-debris", "lat": 51.87023762990612, "lon": 170.26252515227333, "alt_km": 766.3963910204611, "timestamp": "2025-12-19T06:59:44.302165+00:00", "meta": {"OBJECT_NAME": "COSMOS 2251 DEB", "OBJECT_ID": "1993-036ADD", "EPOCH": "2025-12-17T20:10:36.409152", "MEAN_MOTION": 14.37412931, "ECCENTRICITY": 0.00402787, "INCLINATION": 74.0579, "RA_OF_ASC_NODE": 14.2828, "ARG_OF_PERICENTER": 28.7986, "MEAN_ANOMALY": 151.4446, "EPHEMERIS_TYPE": 0, "CLASSIFICATION_TYPE": "U", "NORAD_CAT_ID": 34908, "ELEMENT_SET_NO": 999, "REV_AT_EPOCH": 87352, "BSTAR": 0.00041959022, "MEAN_MOTION_DOT": 1.24e-05, "MEAN_MOTION_DDOT": 0}, "tle": {"line1": "1 34908U 93036ADD 25351.84069918  .00001240  00000+0  41959-3 0  9993", "line2": "2 34908  74.0579  14.2828 0040278  28.7986 151.4446 14.37412931873529"}}, "geometry": {"type": "Point", "coordinates": [170.26252515227333, 51.87023762990612]}}, {"type": "Feature", "properties": {"norad_id": 34909, "name": "COSMOS 2251 DEB", "group": "cosmos-2251-debris", "lat": 46.72553948213712, "lon": -134.0337107760898, "alt_km": 608.3548080490664, "timestamp": "2025-12-19T06:59:44.302175+00:00", "meta": {"OBJECT_NAME": "COSMOS 2251 DEB", "OBJECT_ID": "1993-036ADE", "EPOCH": "2025-12-18T06:01:53.569344", "MEAN_MOTION": 14.77881154, "ECCENTRICITY": 0.00841448, "INCLINATION": 74.015, "RA_OF_ASC_NODE": 65.7361, "ARG_OF_PERICENTER": 200.3056, "MEAN_ANOMALY": 159.4768, "EPHEMERIS_TYPE": 0, "CLASSIFICATION_TYPE": "U", "NORAD_CAT_ID": 34909, "ELEMENT_SET_NO": 999, "REV_AT_EPOCH": 66933, "BSTAR": 0.00045425965, "MEAN_MOTION_DOT": 3.432e-05, "MEAN_MOTION_DDOT": 0}, "tle": {"line1": "1 34909U 93036ADE 25352.25131446  .00003432  00000+0  45426-3 0  9994", "line2": "2 34909  74.0150  65.7361 0084144 200.3056 159.4768 14.77881154669332"}}, "geometry": {"type": "Point", "coordinates": [-134.0337107760898, 46.72553948213712]}}]}